#dP2024  4 17  6  0  0.00000000      96 __u+U IGS20 EXT  IAC
## 2310 280800.00000000   900.00000000 60417 0.2500000000000
+  116   C07C08C09C10C11C12C13C14C16C19C20C21C22C23C24C25C26
+        C27C28C29C30C32C33C34C35C36C37C38C39C40C41C42C43C44
+        C45C46E02E03E04E05E07E08E09E10E11E12E13E14E15E19E21
+        E24E25E26E27E30E31E33E34E36G02G03G04G05G06G07G08G09
+        G10G11G12G13G14G15G16G17G18G19G20G21G22G23G24G25G26
+        G27G28G29G30G31G32J02J03J04R01R02R03R04R05R08R09R11
+        R12R13R14R15R16R17R18R19R20R21R22R24R25R26  0  0  0
++        10  9 10  9  9  9  9  9 10  8  8  9  8  9  9 11  9
++         8  8  8  9  9  9  9  9 10  9  9 10  9 10  9  8 10
++         8  9  8  8  9  8  8  9  8  9  9  8  8  8 10  8  8
++         8  9  8  8  9  8 10  9  8  8  8  8  8  7  8  8  8
++         8  8  8  8  8  8  8  8  8  8  8  7  8  8  8  8  8
++         8  8  8  8  8  8  9  8  0  9  8  8  9  8  8  9  9
++         9 10  9  9  8  9  9 10  8  9  9  8  9  8  0  0  0
%c M  cc GPS ccc cccc cccc cccc cccc ccccc ccccc ccccc ccccc
%c cc cc ccc ccc cccc cccc cccc cccc ccccc ccccc ccccc ccccc
%f  0.0000000  0.000000000  0.00000000000  0.000000000000000
%f  0.0000000  0.000000000  0.00000000000  0.000000000000000
%i    0    0    0    0      0      0      0      0         0
%i    0    0    0    0      0      0      0      0         0
/* IAC                                ULTRA-RAPID PREDICTION
/* S/V CLOCKS ARE ALIGNED TO GNSS TIME                      
/* G:C1WC2W R:C1PC2P E:C1XC5X C:C2IC6I J:C1CC2S             
/* PCV:IGS20_2290 OL/AL:FES2004  NONE     YN ORB:CoN CLK:CoN
*  2024 04 18  1 30  0.00000000
PC07  -3582.783551  32908.048300  26307.962829   -810.655863
PC08 -14397.768897  19338.761872 -34643.422651    -34.448773
PC09 -10616.256713  37171.655884  16519.539420   -777.345032
PC10   4400.441822  36329.334763  21733.545768     -3.670865
PC11   5813.737825 -27290.635614    177.424255    517.590905
PC12  14837.394005 -16589.612523 -16803.891038   -233.186113
PC13  -5670.758574  21641.114921 -35601.903297    431.653027
PC14  -1310.894509 -19096.077778  20299.262089    669.680790
PC16 -18236.873904  37502.048155   5101.749705   -465.158818
PC19  10599.851585  21522.866902 -14253.996611   -914.193261
PC20  -6323.339755  14787.716827 -22795.153963   -371.421453
PC21  21076.685357   1688.389948  18248.628237   -963.279938
PC22  22436.167593  16359.627640   2971.729407    -35.058882
PC23 -18794.019312  -7844.023476 -19077.305381   -775.888593
PC24  19048.193854 -16306.529472 -12240.301765    938.474545
PC25   -519.306780 -16934.177416 -22182.680896    377.563144
PC26  26645.749461  -6872.501079   4517.005420   -278.764076
PC27 -16519.370888   7384.342971  21218.010657    300.530360
PC28 -13303.698359 -11505.739161  21666.628506    229.854429
PC29   1839.373670  26650.896866  -8070.230093    269.642052
PC30 -10698.836186  23675.165423  10143.272161    -58.169882
PC32 -21097.974426  -1577.135625 -18166.083239   -604.179904
PC33 -10576.039548 -21446.746605  14370.245636   -971.337215
PC34   9898.607296 -24602.309964  -8743.082884    414.589558
PC35  13731.416336  11233.301585 -21548.803633    384.424435
PC36   -116.789330  17007.248343  22146.018252     54.755564
PC37 -26821.409530   6087.046849  -4789.238224   -960.073119
PC38 -21648.080454  20294.822551 -29959.761596    149.687757
PC39 -19538.902963  37213.059036  -1034.036330     -8.014573
PC40  -6671.941876  28960.918100  30013.855187    -65.973685
PC41 -22185.655501 -16776.109349  -2044.382044   -927.459965
PC42   8009.014026 -13656.443015  23024.597175   -443.023802
PC43  -1185.234739 -26956.686232   7152.307695     68.402410
PC44  16391.231376  -7839.540323 -21207.806036    446.994555
PC45  18697.825631   7830.313893  19166.855306    -80.749188
PC46 -18540.225168  16417.999062  12893.558660   -140.875856
PE02  -9341.424979 -17838.967136 -21708.364442    120.332147
PE03  -7591.749214 -28586.696041    915.847973   -107.946913
PE04  17203.234756  17310.717183  16768.554979   -376.125286
PE05   6272.434501 -22885.220289  17700.268214   4739.558051
PE07 -16661.597072   3352.312202 -24222.660528   -115.171403
PE08 -16901.377261 -18053.837408 -16248.150532   -256.719185
PE09  16574.200385  -3162.691220  24328.840614   -411.071231
PE10  21142.452827  -2985.666224 -20509.775386   -617.976433
PE11  23604.687204 -12457.217346 -12834.485395   3021.921401
PE12  15938.302269   6024.316597 -24213.826921   -998.959454
PE13 -23516.905835  11981.136484  13386.871016    -21.078774
PE14  -8310.221437  21717.247896  15918.562486      9.769185
PE15 -15469.708456  -6504.383146  24384.476957    -97.720205
PE19   6088.058207  28821.983169  -2905.046100   -223.766538
PE21 -12068.300054  13588.147583  23358.466112   -589.824027
PE24  27405.993540   -974.328414 -11136.897362   -713.500482
PE25  12492.437454 -13402.199603 -23247.749107      3.460095
PE26 -17283.291050  23314.888665  -5798.709072    428.937277
PE27 -27293.828179   1234.287236  11394.506707   -327.113143
PE30 -26122.096886 -11884.404324  -7288.219858   -209.796212
PE31  26237.316187  11694.788472   7140.640124    -21.125381
PE33  -2005.301487  21127.157031 -20633.108741     10.556514
PE34   1478.892248 -20889.689337  20912.840513   -106.279003
PE36  17696.616123 -23153.781484   5237.841349   -214.862900
PG02 -14322.487423  21926.305589  -2907.236120   -451.537520
PG03  -7041.029035  13401.769406 -21960.638777    316.532939
PG04  -3347.191057  22581.578926 -13448.070374    341.241779
PG05  20851.795321  -6799.823295  14868.973026   -169.525876
PG06  16075.090906   2907.093488 -20904.424618    316.766407
PG07   1937.824861  18413.193746  19377.014588   -109.670783
PG08  -9361.397947  15057.704148  19533.360833    128.343152
PG09   7380.987826  25419.168290  -1898.208309    164.257191
PG10 -22869.884860 -10918.359783   8686.990595    -10.186468
PG11  21388.802583  -8433.347900 -13233.552615   -639.336403
PG12   9448.351839 -12843.033942 -21519.596662   -497.535326
PG13  13936.875513  -6032.525046  21564.838273    643.596346
PG14  20034.911627  13383.415614  11430.727892    378.980681
PG15   7533.940942 -16352.185774  18970.197963    149.574218
PG16 -23924.491102   1038.180260  11626.113623   -314.076290
PG17  12622.931272  20574.002569 -10483.146846    710.993797
PG18  -1764.709084 -17626.374678  19739.494294   -596.305207
PG19  15233.729769  12849.321727 -17926.647205    469.709513
PG20  26047.302446  -2079.742025   4352.944156    379.792183
PG21 -16889.971890  19688.700316   2261.312128    126.749404
PG22  23795.022447  10719.909187   4416.864824     -1.038739
PG23 -13174.875134 -14718.207372  17872.165709    203.589098
PG24  14549.783649 -21891.289939  -2006.172062   -460.558374
PG25  -2163.795712 -16038.700301 -21435.464964    493.988841
PG26 -26426.941366  -4173.601899   -747.731626    165.238420
PG27 -14981.196897   2430.824943  21532.278934    -19.264238
PG28 -14896.034839  -5447.819531 -21317.399562   -207.613162
PG29  -3379.939835 -25992.409007  -3960.138363   -601.523503
PG30  11687.294172  10666.570211  21472.811696   -403.661187
PG31 -20500.234253   4314.452407 -16768.438668   -228.004056
PG32 -15132.961484 -17810.662496 -12594.526810   -618.209688
PJ02 -27960.621283  22182.995235  27548.064970     -4.190762
PJ03 -33053.411015  25520.619587  10947.143416     -0.024470
PJ04      0.000000      0.000000      0.000000     50.412829
PR01 -18638.260089 -15006.686133  -8805.081464     82.802960
PR02 -14044.548438  -1667.921186 -21192.537165    -22.762722
PR03  -1954.908352  13503.398871 -21486.866873     98.468937
PR04  10802.367328  20786.982078 -10047.424628    232.503623
PR05  17718.450524  17030.598565   6815.582722    130.129391
PR08 -11032.494172 -20790.593382   9936.447511    -75.109647
PR09  24809.580921  -5856.272429  -1751.802779    181.610152
PR11  -1532.542903 -10826.741017 -23035.904258     27.629475
PR12 -20186.392684  -3845.670696 -15097.897059     39.122156
PR13 -25137.014901   4277.310905   -767.132673    -46.450778
PR14 -15114.685353  11229.142108  17207.248046     26.395837
PR15   3233.030767  10649.565811  22969.379183     80.420417
PR16  20019.672255   3791.748405  15377.647028     24.888058
PR17 -10583.608981  22929.431678   3723.887787     78.959348
PR18  -2645.310180  22043.015859 -12500.702631    137.707617
PR19   5571.407858  11791.054166 -21926.412653   -273.448533
PR20  13573.046084  -9630.838984 -19345.254586   -111.424252
PR21  10760.040619 -22809.110999  -3757.221280    -93.642047
PR22   2341.080890 -21612.231465  13382.302475    115.468955
PR24 -13566.359635  10557.614314  18861.721801    -52.263688
PR25  11450.395208 -22518.836712  -3467.762007    -29.899267
PR26 -10417.232886 -20551.746361  10940.631093    -24.371837
EOF
